{
  "type": "FeatureCollection",
  "features": [
    {
      "type": "Feature",
      "properties": {
        "norad_id": 35660,
        "name": "COSMOS 2251 DEB",
        "group": "cosmos-2251-debris",
        "lat": 16.92080290227113,
        "lon": 111.14964660698385,
        "alt_km": 733.4392413257856,
        "timestamp": "2025-12-27T03:58:44.543104+00:00",
        "meta_object_name": "COSMOS 2251 DEB",
        "meta_object_id": "1993-036APB",
        "meta_epoch": "2025-12-23T17:25:27.080832",
        "meta_mean_motion": 14.49964406,
        "meta_eccentricity": 0.00185636,
        "meta_inclination": 74.0421,
        "meta_ra_of_asc_node": 112.6097,
        "meta_arg_of_pericenter": 260.1497,
        "meta_mean_anomaly": 169.4034,
        "meta_ephemeris_type": 0,
        "meta_classification_type": "U",
        "meta_norad_cat_id": 35660,
        "meta_element_set_no": 999,
        "meta_rev_at_epoch": 66030,
        "meta_bstar": 0.0004829615,
        "meta_mean_motion_dot": 1.846e-05,
        "meta_mean_motion_ddot": 0,
        "tle_line1": "1 35660U 93036APB 25357.72600788  .00001846  00000+0  48296-3 0  9991",
        "tle_line2": "2 35660  74.0421 112.6097 0018563 260.1497 169.4034 14.49964406660307"
      },
      "geometry": {
        "type": "Point",
        "coordinates": [
          111.14964660698385,
          16.92080290227113
        ]
      }
    },
    {
      "type": "Feature",
      "properties": {
        "norad_id": 35661,
        "name": "COSMOS 2251 DEB",
        "group": "cosmos-2251-debris",
        "lat": 56.88833393140773,
        "lon": -155.10466460824574,
        "alt_km": 550.7168095409552,
        "timestamp": "2025-12-27T03:58:44.543113+00:00",
        "meta_object_name": "COSMOS 2251 DEB",
        "meta_object_id": "1993-036APC",
        "meta_epoch": "2025-12-23T10:37:17.617728",
        "meta_mean_motion": 14.86718624,
        "meta_eccentricity": 0.00868669,
        "meta_inclination": 74.0127,
        "meta_ra_of_asc_node": 58.3939,
        "meta_arg_of_pericenter": 159.8507,
        "meta_mean_anomaly": 200.6139,
        "meta_ephemeris_type": 0,
        "meta_classification_type": "U",
        "meta_norad_cat_id": 35661,
        "meta_element_set_no": 999,
        "meta_rev_at_epoch": 88027,
        "meta_bstar": 0.00075396446,
        "meta_mean_motion_dot": 7.154e-05,
        "meta_mean_motion_ddot": 0,
        "tle_line1": "1 35661U 93036APC 25357.44256502  .00007154  00000+0  75396-3 0  9991",
        "tle_line2": "2 35661  74.0127  58.3939 0086866 159.8507 200.6139 14.86718624880273"
      },
      "geometry": {
        "type": "Point",
        "coordinates": [
          -155.10466460824574,
          56.88833393140773
        ]
      }
    },
    {
      "type": "Feature",
      "properties": {
        "norad_id": 35663,
        "name": "COSMOS 2251 DEB",
        "group": "cosmos-2251-debris",
        "lat": 1.037767643443865,
        "lon": 97.15856418234273,
        "alt_km": 680.8599618831167,
        "timestamp": "2025-12-27T03:58:44.543122+00:00",
        "meta_object_name": "COSMOS 2251 DEB",
        "meta_object_id": "1993-036APE",
        "meta_epoch": "2025-12-19T23:59:07.553472",
        "meta_mean_motion": 14.65779868,
        "meta_eccentricity": 0.00057705,
        "meta_inclination": 74.0195,
        "meta_ra_of_asc_node": 110.6712,
        "meta_arg_of_pericenter": 187.908,
        "meta_mean_anomaly": 172.1999,
        "meta_ephemeris_type": 0,
        "meta_classification_type": "U",
        "meta_norad_cat_id": 35663,
        "meta_element_set_no": 999,
        "meta_rev_at_epoch": 73488,
        "meta_bstar": 0.0009843987,
        "meta_mean_motion_dot": 5.342e-05,
        "meta_mean_motion_ddot": 0,
        "tle_line1": "1 35663U 93036APE 25353.99939298  .00005342  00000+0  98440-3 0  9991",
        "tle_line2": "2 35663  74.0195 110.6712 0005770 187.9080 172.1999 14.65779868734880"
      },
      "geometry": {
        "type": "Point",
        "coordinates": [
          97.15856418234273,
          1.037767643443865
        ]
      }
    },
    {
      "type": "Feature",
      "properties": {
        "norad_id": 35667,
        "name": "COSMOS 2251 DEB",
        "group": "cosmos-2251-debris",
        "lat": 60.914853167191616,
        "lon": -98.31759440192185,
        "alt_km": 679.0926847247974,
        "timestamp": "2025-12-27T03:58:44.543131+00:00",
        "meta_object_name": "COSMOS 2251 DEB",
        "meta_object_id": "1993-036APJ",
        "meta_epoch": "2025-12-26T14:18:03.085056",
        "meta_mean_motion": 14.60166033,
        "meta_eccentricity": 0.0018708,
        "meta_inclination": 74.0556,
        "meta_ra_of_asc_node": 113.6955,
        "meta_arg_of_pericenter": 172.6755,
        "meta_mean_anomaly": 187.4688,
        "meta_ephemeris_type": 0,
        "meta_classification_type": "U",
        "meta_norad_cat_id": 35667,
        "meta_element_set_no": 999,
        "meta_rev_at_epoch": 71005,
        "meta_bstar": 0.0012268,
        "meta_mean_motion_dot": 5.898e-05,
        "meta_mean_motion_ddot": 0,
        "tle_line1": "1 35667U 93036APJ 25360.59586904  .00005898  00000+0  12268-2 0  9990",
        "tle_line2": "2 35667  74.0556 113.6955 0018708 172.6755 187.4688 14.60166033710058"
      },
      "geometry": {
        "type": "Point",
        "coordinates": [
          -98.31759440192185,
          60.914853167191616
        ]
      }
    },
    {
      "type": "Feature",
      "properties": {
        "norad_id": 35668,
        "name": "COSMOS 2251 DEB",
        "group": "cosmos-2251-debris",
        "lat": 66.38959080186378,
        "lon": -126.28190388756833,
        "alt_km": 716.8378547896018,
        "timestamp": "2025-12-27T03:58:44.543151+00:00",
        "meta_object_name": "COSMOS 2251 DEB",
        "meta_object_id": "1993-036APK",
        "meta_epoch": "2025-12-26T19:26:55.549824",
        "meta_mean_motion": 14.64024232,
        "meta_eccentricity": 0.0083592,
        "meta_inclination": 74.0428,
        "meta_ra_of_asc_node": 193.5113,
        "meta_arg_of_pericenter": 295.4318,
        "meta_mean_anomaly": 63.8215,
        "meta_ephemeris_type": 0,
        "meta_classification_type": "U",
        "meta_norad_cat_id": 35668,
        "meta_element_set_no": 999,
        "meta_rev_at_epoch": 87853,
        "meta_bstar": 0.00024287,
        "meta_mean_motion_dot": 1.306e-05,
        "meta_mean_motion_ddot": 0,
        "tle_line1": "1 35668U 93036APK 25360.81036516  .00001306  00000+0  24287-3 0  9990",
        "tle_line2": "2 35668  74.0428 193.5113 0083592 295.4318  63.8215 14.64024232878531"
      },
      "geometry": {
        "type": "Point",
        "coordinates": [
          -126.28190388756833,
          66.38959080186378
        ]
      }
    },
    {
      "type": "Feature",
      "properties": {
        "norad_id": 35669,
        "name": "COSMOS 2251 DEB",
        "group": "cosmos-2251-debris",
        "lat": -73.80584234421481,
        "lon": 41.46038479248552,
        "alt_km": 787.337017718156,
        "timestamp": "2025-12-27T03:58:44.543160+00:00",
        "meta_object_name": "COSMOS 2251 DEB",
        "meta_object_id": "1993-036APL",
        "meta_epoch": "2025-12-20T02:35:15.805248",
        "meta_mean_motion": 13.57168765,
        "meta_eccentricity": 0.03877863,
        "meta_inclination": 73.8603,
        "meta_ra_of_asc_node": 147.3718,
        "meta_arg_of_pericenter": 257.91,
        "meta_mean_anomaly": 97.8317,
        "meta_ephemeris_type": 0,
        "meta_classification_type": "U",
        "meta_norad_cat_id": 35669,
        "meta_element_set_no": 999,
        "meta_rev_at_epoch": 60889,
        "meta_bstar": 0.00066721827,
        "meta_mean_motion_dot": 7.5e-06,
        "meta_mean_motion_ddot": 0,
        "tle_line1": "1 35669U 93036APL 25354.10782182  .00000750  00000+0  66722-3 0  9995",
        "tle_line2": "2 35669  73.8603 147.3718 0387786 257.9100  97.8317 13.57168765608897"
      },
      "geometry": {
        "type": "Point",
        "coordinates": [
          41.46038479248552,
          -73.80584234421481
        ]
      }
    },
    {
      "type": "Feature",
      "properties": {
        "norad_id": 35670,
        "name": "COSMOS 2251 DEB",
        "group": "cosmos-2251-debris",
        "lat": 55.490569921121406,
        "lon": -169.6634966847903,
        "alt_km": 595.5471164286091,
        "timestamp": "2025-12-27T03:58:44.543170+00:00",
        "meta_object_name": "COSMOS 2251 DEB",
        "meta_object_id": "1993-036APM",
        "meta_epoch": "2025-12-22T20:36:05.670144",
        "meta_mean_motion": 14.94150162,
        "meta_eccentricity": 0.0038413,
        "meta_inclination": 73.8936,
        "meta_ra_of_asc_node": 43.936,
        "meta_arg_of_pericenter": 2.2242,
        "meta_mean_anomaly": 357.9104,
        "meta_ephemeris_type": 0,
        "meta_classification_type": "U",
        "meta_norad_cat_id": 35670,
        "meta_element_set_no": 999,
        "meta_rev_at_epoch": 87878,
        "meta_bstar": 0.0012423,
        "meta_mean_motion_dot": 0.00013477,
        "meta_mean_motion_ddot": 0,
        "tle_line1": "1 35670U 93036APM 25356.85839896  .00013477  00000+0  12423-2 0  9994",
        "tle_line2": "2 35670  73.8936  43.9360 0038413   2.2242 357.9104 14.94150162878785"
      },
      "geometry": {
        "type": "Point",
        "coordinates": [
          -169.6634966847903,
          55.490569921121406
        ]
      }
    }
  ]
}